{
"type": "FeatureCollection",
"name": "Gas Station",
"crs": { "type": "name", "properties": { "name": "urn:ogc:def:crs:OGC:1.3:CRS84" } },
"features": [
{ "type": "Feature", "properties": { "osm_id": "429979882", "amenity": "fuel", "name": null, "addr:full": null, "addr:city": null, "source": null, "operator": null }, "geometry": { "type": "Point", "coordinates": [ 112.7521186, -7.2634443 ] } },
{ "type": "Feature", "properties": { "osm_id": "3067854733", "amenity": "fuel", "name": "SPBU Nginden Semolo", "addr:full": null, "addr:city": null, "source": null, "operator": "PT Pertamina" }, "geometry": { "type": "Point", "coordinates": [ 112.769516900000013, -7.3003608 ] } },
{ "type": "Feature", "properties": { "osm_id": "4374920043", "amenity": "fuel", "name": null, "addr:full": null, "addr:city": null, "source": null, "operator": null }, "geometry": { "type": "Point", "coordinates": [ 112.6621415, -7.3003049 ] } },
{ "type": "Feature", "properties": { "osm_id": "4472320636", "amenity": "fuel", "name": "SPBU Keputih", "addr:full": "Jalan R Hakim", "addr:city": null, "source": null, "operator": "PT Pertamina" }, "geometry": { "type": "Point", "coordinates": [ 112.7842866, -7.2903351 ] } },
{ "type": "Feature", "properties": { "osm_id": "4476282609", "amenity": "fuel", "name": "SPBU Semoloru", "addr:full": "Jalan Semolowaru", "addr:city": null, "source": null, "operator": "PT Pertamina" }, "geometry": { "type": "Point", "coordinates": [ 112.7813011, -7.3009602 ] } },
{ "type": "Feature", "properties": { "osm_id": "4564829814", "amenity": "fuel", "name": null, "addr:full": null, "addr:city": null, "source": null, "operator": null }, "geometry": { "type": "Point", "coordinates": [ 112.733912600000011, -7.2846901 ] } },
{ "type": "Feature", "properties": { "osm_id": "4624678903", "amenity": "fuel", "name": null, "addr:full": null, "addr:city": null, "source": null, "operator": null }, "geometry": { "type": "Point", "coordinates": [ 112.7318742, -7.2229422 ] } },
{ "type": "Feature", "properties": { "osm_id": "4785469489", "amenity": "fuel", "name": "SPBU Bratang Jaya", "addr:full": "Jalan Bratang Jaya", "addr:city": null, "source": null, "operator": "PT Pertamina" }, "geometry": { "type": "Point", "coordinates": [ 112.76082310000001, -7.298784 ] } },
{ "type": "Feature", "properties": { "osm_id": "4785469490", "amenity": "fuel", "name": null, "addr:full": "Jalan Raya Kebraon depan Kebraon II", "addr:city": null, "source": null, "operator": null }, "geometry": { "type": "Point", "coordinates": [ 112.7031288, -7.3365777 ] } },
{ "type": "Feature", "properties": { "osm_id": "4785469491", "amenity": "fuel", "name": null, "addr:full": null, "addr:city": null, "source": null, "operator": null }, "geometry": { "type": "Point", "coordinates": [ 112.77569530000001, -7.2864174 ] } },
{ "type": "Feature", "properties": { "osm_id": "4785469492", "amenity": "fuel", "name": null, "addr:full": "Jalan Raya Ngagel", "addr:city": null, "source": null, "operator": null }, "geometry": { "type": "Point", "coordinates": [ 112.7424338, -7.296664 ] } },
{ "type": "Feature", "properties": { "osm_id": "4785469493", "amenity": "fuel", "name": "SPBU Pertamina 54.601.16", "addr:full": "sukomanunggal", "addr:city": null, "source": null, "operator": "PT Pertamina" }, "geometry": { "type": "Point", "coordinates": [ 112.7064562, -7.265884 ] } },
{ "type": "Feature", "properties": { "osm_id": "4785469494", "amenity": "fuel", "name": "SPBU 54.601.33", "addr:full": "raya balongsari", "addr:city": null, "source": null, "operator": "PT Pertamina" }, "geometry": { "type": "Point", "coordinates": [ 112.679087700000011, -7.2588552 ] } },
{ "type": "Feature", "properties": { "osm_id": "4785469495", "amenity": "fuel", "name": "SPBU Jalan Semarang", "addr:full": "Jalan Semarang", "addr:city": null, "source": null, "operator": "PT Pertamina" }, "geometry": { "type": "Point", "coordinates": [ 112.7299569, -7.2508829 ] } },
{ "type": "Feature", "properties": { "osm_id": "4785469496", "amenity": "fuel", "name": "SPBU Pertamina", "addr:full": "Jalan Kertajaya", "addr:city": null, "source": null, "operator": "PT Pertamina" }, "geometry": { "type": "Point", "coordinates": [ 112.755598400000011, -7.2785735 ] } },
{ "type": "Feature", "properties": { "osm_id": "4785469497", "amenity": "fuel", "name": null, "addr:full": null, "addr:city": null, "source": null, "operator": null }, "geometry": { "type": "Point", "coordinates": [ 112.7514758, -7.3181922 ] } },
{ "type": "Feature", "properties": { "osm_id": "4785469498", "amenity": "fuel", "name": "SPBU Pertamina 54.602.63", "addr:full": "Jalan HR Muhammad", "addr:city": null, "source": null, "operator": "PT Pertamina" }, "geometry": { "type": "Point", "coordinates": [ 112.6975852, -7.2852487 ] } },
{ "type": "Feature", "properties": { "osm_id": "4785469499", "amenity": "fuel", "name": "SPBU Jalan Diponegoro", "addr:full": "Jalan Diponegoro", "addr:city": null, "source": null, "operator": "PT Pertamina" }, "geometry": { "type": "Point", "coordinates": [ 112.7295461, -7.2790587 ] } },
{ "type": "Feature", "properties": { "osm_id": "4785469500", "amenity": "fuel", "name": null, "addr:full": "Jalan Raya Lontar", "addr:city": null, "source": null, "operator": null }, "geometry": { "type": "Point", "coordinates": [ 112.675581400000013, -7.2848287 ] } },
{ "type": "Feature", "properties": { "osm_id": "4785469501", "amenity": "fuel", "name": "SPBU 51.601.65", "addr:full": "Jalan Jemursari", "addr:city": null, "source": null, "operator": "PT Pertamina" }, "geometry": { "type": "Point", "coordinates": [ 112.746579700000012, -7.3200616 ] } },
{ "type": "Feature", "properties": { "osm_id": "4785469502", "amenity": "fuel", "name": "SPBU 54.60143 Indrakala", "addr:full": "Jalan Indra Kala", "addr:city": null, "source": null, "operator": "PT Pertamina" }, "geometry": { "type": "Point", "coordinates": [ 112.7543317, -7.2604107 ] } },
{ "type": "Feature", "properties": { "osm_id": "4785469503", "amenity": "fuel", "name": "SPBU 54.60182", "addr:full": "Jalan Raya Manyar", "addr:city": null, "source": null, "operator": "PT Pertamina" }, "geometry": { "type": "Point", "coordinates": [ 112.7634146, -7.2893943 ] } },
{ "type": "Feature", "properties": { "osm_id": "4785469504", "amenity": "fuel", "name": "SPBU 54.602.62", "addr:full": "Jalan Raya Wiyung Menganti", "addr:city": null, "source": null, "operator": "PT Pertamina" }, "geometry": { "type": "Point", "coordinates": [ 112.6984354, -7.3132092 ] } },
{ "type": "Feature", "properties": { "osm_id": "4785469505", "amenity": "fuel", "name": "SPBU Kebraon 54.60250", "addr:full": "Jalan Mastrip", "addr:city": null, "source": null, "operator": "PT Pertamina" }, "geometry": { "type": "Point", "coordinates": [ 112.699429, -7.3389412 ] } },
{ "type": "Feature", "properties": { "osm_id": "4785469506", "amenity": "fuel", "name": "SPBU 54.601.105", "addr:full": null, "addr:city": null, "source": null, "operator": "PT Pertamina" }, "geometry": { "type": "Point", "coordinates": [ 112.663777900000014, -7.3068905 ] } },
{ "type": "Feature", "properties": { "osm_id": "4785469507", "amenity": "fuel", "name": "SPBU 54.601.06", "addr:full": "Jalan Tidar", "addr:city": null, "source": null, "operator": "PT Pertamina" }, "geometry": { "type": "Point", "coordinates": [ 112.7191193, -7.2563956 ] } },
{ "type": "Feature", "properties": { "osm_id": "4785469508", "amenity": "fuel", "name": null, "addr:full": null, "addr:city": null, "source": null, "operator": null }, "geometry": { "type": "Point", "coordinates": [ 112.7163151, -7.2446315 ] } },
{ "type": "Feature", "properties": { "osm_id": "4785469509", "amenity": "fuel", "name": "SPBU 64.601.114", "addr:full": "Jalan Raya Balas Klumprik", "addr:city": null, "source": null, "operator": "PT Pertamina" }, "geometry": { "type": "Point", "coordinates": [ 112.6918097, -7.3325564 ] } },
{ "type": "Feature", "properties": { "osm_id": "4785469510", "amenity": "fuel", "name": "SPBU 54. 60102", "addr:full": "Jalan Raya Mulyosari", "addr:city": null, "source": null, "operator": "PT Pertamina" }, "geometry": { "type": "Point", "coordinates": [ 112.7967306, -7.2712839 ] } },
{ "type": "Feature", "properties": { "osm_id": "4785469511", "amenity": "fuel", "name": "SPBU 54 601 92", "addr:full": "Jalan Tegalsari No. 43-45", "addr:city": null, "source": null, "operator": "PT Pertamina" }, "geometry": { "type": "Point", "coordinates": [ 112.7378505, -7.2660257 ] } },
{ "type": "Feature", "properties": { "osm_id": "4785469512", "amenity": "fuel", "name": "SPBU Tambak Deres", "addr:full": "Jalan Kyai Tambak Deres", "addr:city": null, "source": null, "operator": "PT Pertamina" }, "geometry": { "type": "Point", "coordinates": [ 112.7738302, -7.2319976 ] } },
{ "type": "Feature", "properties": { "osm_id": "4785469513", "amenity": "fuel", "name": "SPBU Gundih", "addr:full": "Jalan Dupak", "addr:city": null, "source": null, "operator": "PT Pertamina" }, "geometry": { "type": "Point", "coordinates": [ 112.729391600000014, -7.2455575 ] } },
{ "type": "Feature", "properties": { "osm_id": "4785469514", "amenity": "fuel", "name": "SPBU Pertamina 54.60104", "addr:full": "Jalan Kupang jaya", "addr:city": null, "source": null, "operator": "PT Pertamina" }, "geometry": { "type": "Point", "coordinates": [ 112.7073553, -7.2756816 ] } },
{ "type": "Feature", "properties": { "osm_id": "4785469515", "amenity": "fuel", "name": "SPBU 54.601.35", "addr:full": "darmo indah timur", "addr:city": null, "source": null, "operator": "PT Pertamina" }, "geometry": { "type": "Point", "coordinates": [ 112.687488300000012, -7.2639925 ] } },
{ "type": "Feature", "properties": { "osm_id": "4785469516", "amenity": "fuel", "name": null, "addr:full": "Jalan Ambengan", "addr:city": null, "source": null, "operator": null }, "geometry": { "type": "Point", "coordinates": [ 112.7465183, -7.2561257 ] } },
{ "type": "Feature", "properties": { "osm_id": "4785469517", "amenity": "fuel", "name": "SPBU Pakuwon City", "addr:full": null, "addr:city": null, "source": null, "operator": "PT Pertamina" }, "geometry": { "type": "Point", "coordinates": [ 112.8076771, -7.2783649 ] } },
{ "type": "Feature", "properties": { "osm_id": "4785469518", "amenity": "fuel", "name": "SPBU Bubutan", "addr:full": "Jalan Bubutan No. 76", "addr:city": null, "source": null, "operator": "PT Pertamina" }, "geometry": { "type": "Point", "coordinates": [ 112.735212800000014, -7.2525433 ] } },
{ "type": "Feature", "properties": { "osm_id": "4785469519", "amenity": "fuel", "name": "SPBU Pertamina", "addr:full": "Jalan Banda", "addr:city": null, "source": null, "operator": "PT Pertamina" }, "geometry": { "type": "Point", "coordinates": [ 112.7510288, -7.2683736 ] } },
{ "type": "Feature", "properties": { "osm_id": "4785469520", "amenity": "fuel", "name": null, "addr:full": "Jalan Raya Rungkut Industri", "addr:city": null, "source": null, "operator": null }, "geometry": { "type": "Point", "coordinates": [ 112.757085800000013, -7.3305505 ] } },
{ "type": "Feature", "properties": { "osm_id": "4785469821", "amenity": "fuel", "name": "SPBU Ketintang", "addr:full": "Jalan Ketintang Madya", "addr:city": null, "source": null, "operator": "PT Pertamina" }, "geometry": { "type": "Point", "coordinates": [ 112.7240447, -7.311253 ] } },
{ "type": "Feature", "properties": { "osm_id": "4785469822", "amenity": "fuel", "name": "SPBU 54.601.75", "addr:full": "Jalan Tanjungsari", "addr:city": null, "source": null, "operator": "PT Pertamina" }, "geometry": { "type": "Point", "coordinates": [ 112.6934832, -7.2603911 ] } },
{ "type": "Feature", "properties": { "osm_id": "4785469823", "amenity": "fuel", "name": "SPBU 54.601.06", "addr:full": "Jalan Prof Dr Moestopo", "addr:city": null, "source": null, "operator": "PT Pertamina" }, "geometry": { "type": "Point", "coordinates": [ 112.76842640000001, -7.2668848 ] } },
{ "type": "Feature", "properties": { "osm_id": "4785469824", "amenity": "fuel", "name": "SPBU 54.602.13", "addr:full": "Jalan Mayjen Sungkono", "addr:city": null, "source": null, "operator": "PT Pertamina" }, "geometry": { "type": "Point", "coordinates": [ 112.7233371, -7.2918203 ] } },
{ "type": "Feature", "properties": { "osm_id": "4785469829", "amenity": "fuel", "name": "SPBU Pertamina Kayoon", "addr:full": "embong kemiri", "addr:city": null, "source": null, "operator": "PT Pertamina" }, "geometry": { "type": "Point", "coordinates": [ 112.7463785, -7.2698378 ] } },
{ "type": "Feature", "properties": { "osm_id": "4785469830", "amenity": "fuel", "name": "SPBU 54.601.107", "addr:full": "Jalan Raya Kebosari", "addr:city": null, "source": null, "operator": "PT Pertamina" }, "geometry": { "type": "Point", "coordinates": [ 112.7110126, -7.327859 ] } },
{ "type": "Feature", "properties": { "osm_id": "4785469831", "amenity": "fuel", "name": "SPBU 54.602.59", "addr:full": "Jalan Mayjend Sungkono", "addr:city": null, "source": null, "operator": "PT Pertamina" }, "geometry": { "type": "Point", "coordinates": [ 112.7105449, -7.2896942 ] } },
{ "type": "Feature", "properties": { "osm_id": "4785469832", "amenity": "fuel", "name": null, "addr:full": "Jalan Jagir Wonokromo", "addr:city": null, "source": null, "operator": null }, "geometry": { "type": "Point", "coordinates": [ 112.7601073, -7.3063757 ] } },
{ "type": "Feature", "properties": { "osm_id": "4785469833", "amenity": "fuel", "name": null, "addr:full": "Jalan Joyoboyo", "addr:city": null, "source": null, "operator": null }, "geometry": { "type": "Point", "coordinates": [ 112.731701, -7.2992263 ] } },
{ "type": "Feature", "properties": { "osm_id": "4785469834", "amenity": "fuel", "name": "SPBU 54.601.21", "addr:full": "Margomulyo", "addr:city": null, "source": null, "operator": "PT Pertamina" }, "geometry": { "type": "Point", "coordinates": [ 112.680948, -7.2578204 ] } },
{ "type": "Feature", "properties": { "osm_id": "4785469835", "amenity": "fuel", "name": "SPBU 54.601103", "addr:full": "Jalan Dupak Rukun Barat", "addr:city": null, "source": null, "operator": "PT Pertamina" }, "geometry": { "type": "Point", "coordinates": [ 112.7105983, -7.2493313 ] } },
{ "type": "Feature", "properties": { "osm_id": "4785469836", "amenity": "fuel", "name": "SPBU Pertamina", "addr:full": "Jalan Pandugo", "addr:city": null, "source": null, "operator": "PT Pertamina" }, "geometry": { "type": "Point", "coordinates": [ 112.7853771, -7.322002 ] } },
{ "type": "Feature", "properties": { "osm_id": "4785469837", "amenity": "fuel", "name": "SPBU Pertamina Kusuma Bangsa", "addr:full": "kusuma bangsa", "addr:city": null, "source": null, "operator": "PT Pertamina" }, "geometry": { "type": "Point", "coordinates": [ 112.74979350000001, -7.2543663 ] } },
{ "type": "Feature", "properties": { "osm_id": "4785469838", "amenity": "fuel", "name": "SPBU Jalan Demak", "addr:full": "Jalan Demak", "addr:city": null, "source": null, "operator": "PT Pertamina" }, "geometry": { "type": "Point", "coordinates": [ 112.721204300000011, -7.2483761 ] } },
{ "type": "Feature", "properties": { "osm_id": "4785469839", "amenity": "fuel", "name": "SPBU Kebraon", "addr:full": "Jalan Raya Mastrip", "addr:city": null, "source": null, "operator": "PT Pertamina" }, "geometry": { "type": "Point", "coordinates": [ 112.7038955, -7.3348821 ] } },
{ "type": "Feature", "properties": { "osm_id": "4785469840", "amenity": "fuel", "name": "SPBU 54.601.10", "addr:full": "Raya Banjar Sugihan", "addr:city": null, "source": null, "operator": "PT Pertamina" }, "geometry": { "type": "Point", "coordinates": [ 112.6626909, -7.2551937 ] } },
{ "type": "Feature", "properties": { "osm_id": "4785469841", "amenity": "fuel", "name": "SPBU Kertajaya", "addr:full": "Jalan Raya Kertajaya", "addr:city": null, "source": null, "operator": "PT Pertamina" }, "geometry": { "type": "Point", "coordinates": [ 112.7717369, -7.2808034 ] } },
{ "type": "Feature", "properties": { "osm_id": "4785469842", "amenity": "fuel", "name": "SPBU Terminal Bratang", "addr:full": "Jalan Raya Nginden", "addr:city": null, "source": null, "operator": "PT Pertamina" }, "geometry": { "type": "Point", "coordinates": [ 112.761684, -7.2999606 ] } },
{ "type": "Feature", "properties": { "osm_id": "4785469843", "amenity": "fuel", "name": "SPBU 54.601.111", "addr:full": "Jalan Margorejo Indah", "addr:city": null, "source": null, "operator": "PT Pertamina" }, "geometry": { "type": "Point", "coordinates": [ 112.769943, -7.3215231 ] } },
{ "type": "Feature", "properties": { "osm_id": "4785469844", "amenity": "fuel", "name": "SPBU 54.601.111", "addr:full": "Jalan Margorejo Indah", "addr:city": null, "source": null, "operator": "PT Pertamina" }, "geometry": { "type": "Point", "coordinates": [ 112.7455397, -7.3184096 ] } },
{ "type": "Feature", "properties": { "osm_id": "4785469850", "amenity": "fuel", "name": "SPBU 54.60.1113", "addr:full": "Jalan Kalijudan", "addr:city": null, "source": null, "operator": "PT Pertamina" }, "geometry": { "type": "Point", "coordinates": [ 112.78261830000001, -7.2580162 ] } },
{ "type": "Feature", "properties": { "osm_id": "4785469851", "amenity": "fuel", "name": "SPBU 54.601.117", "addr:full": "Jalan Nganglik", "addr:city": null, "source": null, "operator": "PT Pertamina" }, "geometry": { "type": "Point", "coordinates": [ 112.7548521, -7.2487994 ] } },
{ "type": "Feature", "properties": { "osm_id": "4785469852", "amenity": "fuel", "name": "SPBU 54.601.42", "addr:full": "Jalan Tambak Rejo", "addr:city": null, "source": null, "operator": "PT Pertamina" }, "geometry": { "type": "Point", "coordinates": [ 112.7592409, -7.2429779 ] } },
{ "type": "Feature", "properties": { "osm_id": "4785469853", "amenity": "fuel", "name": "SPBU 54.601.120", "addr:full": "Jalan Sidotopo Wetan", "addr:city": null, "source": null, "operator": "PT Pertamina" }, "geometry": { "type": "Point", "coordinates": [ 112.757340500000012, -7.2417746 ] } },
{ "type": "Feature", "properties": { "osm_id": "4785469854", "amenity": "fuel", "name": "SPBU 54.681.95", "addr:full": null, "addr:city": null, "source": null, "operator": "PT Pertamina" }, "geometry": { "type": "Point", "coordinates": [ 112.7365158, -7.2228744 ] } },
{ "type": "Feature", "properties": { "osm_id": "4785469855", "amenity": "fuel", "name": "SPBU 54.60191", "addr:full": "Jalan Rajawali", "addr:city": null, "source": null, "operator": "PT Pertamina" }, "geometry": { "type": "Point", "coordinates": [ 112.735229, -7.2352675 ] } },
{ "type": "Feature", "properties": { "osm_id": "4785469856", "amenity": "fuel", "name": "SPBU 54.60189", "addr:full": "Jalan Ikan Kakap", "addr:city": null, "source": null, "operator": "PT Pertamina" }, "geometry": { "type": "Point", "coordinates": [ 112.7259003, -7.2311066 ] } },
{ "type": "Feature", "properties": { "osm_id": "4785469857", "amenity": "fuel", "name": "SPBU 54.601123", "addr:full": "Jalan Kalianak Timur", "addr:city": null, "source": null, "operator": "PT Pertamina" }, "geometry": { "type": "Point", "coordinates": [ 112.7086617, -7.2291309 ] } },
{ "type": "Feature", "properties": { "osm_id": "4785469858", "amenity": "fuel", "name": "SPBU 54 60108", "addr:full": "Jalan Tambak Langon", "addr:city": null, "source": null, "operator": "PT Pertamina" }, "geometry": { "type": "Point", "coordinates": [ 112.6764578, -7.2293485 ] } },
{ "type": "Feature", "properties": { "osm_id": "4785469859", "amenity": "fuel", "name": "SPBU Oso Wilangon 5460112", "addr:full": "Jalan Tambak oso wilangon", "addr:city": null, "source": null, "operator": "PT Pertamina" }, "geometry": { "type": "Point", "coordinates": [ 112.653032700000011, -7.2138415 ] } },
{ "type": "Feature", "properties": { "osm_id": "4795153365", "amenity": "fuel", "name": "SPBU 54.60176", "addr:full": "Jalan Iskandar Muda", "addr:city": null, "source": null, "operator": "PT Pertamina" }, "geometry": { "type": "Point", "coordinates": [ 112.7420332, -7.2250837 ] } },
{ "type": "Feature", "properties": { "osm_id": "4795153366", "amenity": "fuel", "name": "SPBU Gunung Sari", "addr:full": "Jalan Gunung Sari", "addr:city": null, "source": null, "operator": "PT Pertamina" }, "geometry": { "type": "Point", "coordinates": [ 112.7228567, -7.306757 ] } },
{ "type": "Feature", "properties": { "osm_id": "4795165701", "amenity": "fuel", "name": "SPBU 54.601.73", "addr:full": "Jalan raya pakal", "addr:city": null, "source": null, "operator": "PT Pertamina" }, "geometry": { "type": "Point", "coordinates": [ 112.6187105, -7.2367325 ] } },
{ "type": "Feature", "properties": { "osm_id": "4795165703", "amenity": "fuel", "name": "SPBU Panjang Jiwo", "addr:full": "Jalan Panjang Jiwo", "addr:city": null, "source": null, "operator": "PT Pertamina" }, "geometry": { "type": "Point", "coordinates": [ 112.7678717, -7.3086169 ] } },
{ "type": "Feature", "properties": { "osm_id": "4795168079", "amenity": "fuel", "name": "SPBU 54.601.110", "addr:full": "Jalan Pecindilan", "addr:city": null, "source": null, "operator": "PT Pertamina" }, "geometry": { "type": "Point", "coordinates": [ 112.747946, -7.2451436 ] } },
{ "type": "Feature", "properties": { "osm_id": "4795168080", "amenity": "fuel", "name": "SPBU 54.601.44", "addr:full": "Jalan Waspada", "addr:city": null, "source": null, "operator": "PT Pertamina" }, "geometry": { "type": "Point", "coordinates": [ 112.739755300000013, -7.2424652 ] } },
{ "type": "Feature", "properties": { "osm_id": "4795168081", "amenity": "fuel", "name": "SPBU 54.601.81", "addr:full": "Jalan Dinoyo 125", "addr:city": null, "source": null, "operator": "PT Pertamina" }, "geometry": { "type": "Point", "coordinates": [ 112.7455029, -7.2863779 ] } },
{ "type": "Feature", "properties": { "osm_id": "4795168621", "amenity": "fuel", "name": "SPBU 54.601.17", "addr:full": "Jalan Sidotopo Lor", "addr:city": null, "source": null, "operator": "PT Pertamina" }, "geometry": { "type": "Point", "coordinates": [ 112.7537037, -7.2331829 ] } },
{ "type": "Feature", "properties": { "osm_id": "4795172424", "amenity": "fuel", "name": "SPBU Ploso Baru", "addr:full": "ploso baru", "addr:city": null, "source": null, "operator": "PT Pertamina" }, "geometry": { "type": "Point", "coordinates": [ 112.7738589, -7.2584869 ] } },
{ "type": "Feature", "properties": { "osm_id": "4795172425", "amenity": "fuel", "name": "SPBU Jalan Pahlawan", "addr:full": "Jalan Pahlawan", "addr:city": null, "source": null, "operator": "PT Pertamina" }, "geometry": { "type": "Point", "coordinates": [ 112.7371487, -7.249716 ] } },
{ "type": "Feature", "properties": { "osm_id": "4795172653", "amenity": "fuel", "name": "SPBU Rangkah", "addr:full": "Jalan Kapas Krampung", "addr:city": null, "source": null, "operator": "PT Pertamina" }, "geometry": { "type": "Point", "coordinates": [ 112.7647314, -7.2500331 ] } },
{ "type": "Feature", "properties": { "osm_id": "4795172654", "amenity": "fuel", "name": null, "addr:full": null, "addr:city": null, "source": null, "operator": null }, "geometry": { "type": "Point", "coordinates": [ 112.7314882, -7.222569 ] } },
{ "type": "Feature", "properties": { "osm_id": "4795172655", "amenity": "fuel", "name": null, "addr:full": "Jalan HR Muhammad", "addr:city": null, "source": null, "operator": null }, "geometry": { "type": "Point", "coordinates": [ 112.6911929, -7.2843649 ] } },
{ "type": "Feature", "properties": { "osm_id": "4795173765", "amenity": "fuel", "name": "SPBU Ngagel Jaya Utara", "addr:full": "Jalan Ngagel Jaya Utara nomor 91", "addr:city": null, "source": null, "operator": "PT Pertamina" }, "geometry": { "type": "Point", "coordinates": [ 112.758346800000012, -7.2888059 ] } },
{ "type": "Feature", "properties": { "osm_id": "4795173766", "amenity": "fuel", "name": "SPBU Arjuno", "addr:full": null, "addr:city": null, "source": null, "operator": "PT Pertamina" }, "geometry": { "type": "Point", "coordinates": [ 112.7276159, -7.2577494 ] } },
{ "type": "Feature", "properties": { "osm_id": "4795173767", "amenity": "fuel", "name": "SPBU Arjuno 2", "addr:full": null, "addr:city": null, "source": null, "operator": "PT Pertamina" }, "geometry": { "type": "Point", "coordinates": [ 112.7262484, -7.2630839 ] } },
{ "type": "Feature", "properties": { "osm_id": "4795187915", "amenity": "fuel", "name": "SPBU 54.601.99", "addr:full": "Jalan Raya Rungkut Harapan", "addr:city": null, "source": null, "operator": "PT Pertamina" }, "geometry": { "type": "Point", "coordinates": [ 112.7749754, -7.3346773 ] } },
{ "type": "Feature", "properties": { "osm_id": "5529534804", "amenity": "fuel", "name": "SPBU 54-60180", "addr:full": null, "addr:city": null, "source": null, "operator": "PT Pertamina" }, "geometry": { "type": "Point", "coordinates": [ 112.7293704, -7.3339045 ] } },
{ "type": "Feature", "properties": { "osm_id": "5623263231", "amenity": "fuel", "name": "Shell", "addr:full": null, "addr:city": null, "source": null, "operator": "PT Pertamina" }, "geometry": { "type": "Point", "coordinates": [ 112.675749200000013, -7.2915588 ] } }
]
}
